OBJECT_NAME,OBJECT_ID,EPOCH,MEAN_MOTION,ECCENTRICITY,INCLINATION,RA_OF_ASC_NODE,ARG_OF_PERICENTER,MEAN_ANOMALY,EPHEMERIS_TYPE,CLASSIFICATION_TYPE,NORAD_CAT_ID,ELEMENT_SET_NO,REV_AT_EPOCH,BSTAR,MEAN_MOTION_DOT,MEAN_MOTION_DDOT
ATLAS CENTAUR 2,1963-047A,2026-06-09T08:46:35.208192,14.12502248,.05459802,30.3546,43.1332,168.5299,192.8318,0,U,694,999,14459,.14299482E-3,.1282E-4,0
THOR AGENA D R/B,1964-002A,2026-06-09T18:16:08.025600,14.34062808,.00326912,99.1156,179.0926,352.4258,7.6427,0,U,733,999,25149,.80294081E-4,.177E-5,0
SL-3 R/B,1964-053B,2026-06-09T11:02:47.514624,14.61423292,.00811413,65.0775,62.1687,263.5318,95.6538,0,U,877,999,28020,.44704543E-4,.106E-5,0
SL-8 R/B,1967-045B,2026-06-09T18:00:57.720384,14.45679072,.00637326,74.0092,176.1480,162.4475,197.8907,0,U,2802,999,10232,.65047593E-4,.208E-5,0
SL-8 R/B,1968-040B,2026-06-09T07:59:14.033184,15.03777737,.00260272,74.0296,126.3533,280.7848,79.0411,0,U,3230,999,10378,.18960456E-3,.258E-4,0
OAO 2,1968-110A,2026-06-09T12:50:33.402912,14.47348804,.00059666,34.9928,112.4045,218.3929,141.6338,0,U,3597,999,3241,.50594282E-4,.169E-5,0
ISIS 1,1969-009A,2026-06-09T16:02:23.451072,11.30432892,.17060217,88.4420,145.2259,263.4230,77.0700,0,U,3669,999,35892,.53575865E-4,.72E-6,0
SERT 2,1970-009A,2026-06-09T17:50:21.628032,13.58738657,.00040654,99.2841,98.8560,296.7281,121.4083,0,U,4327,999,79239,.37893253E-4,-.14E-6,0
SL-3 R/B,1971-028B,2026-06-09T18:52:52.240800,15.69041172,.00137524,81.2328,297.5992,307.7765,52.2246,0,U,5118,999,308,.41991305E-3,.4892E-3,0
ASTEX 1,1971-089A,2026-06-09T13:18:35.592768,14.50845559,.00173815,92.6999,181.3976,128.7637,231.5126,0,U,5560,999,87562,.10297383E-3,.406E-5,0
SL-8 R/B,1971-119B,2026-06-09T17:17:23.262432,14.39459588,.05438055,73.8881,3.4595,310.9335,44.5920,0,U,5730,999,66872,.19611641E-3,.3796E-4,0
OAO 3 (COPERNICUS),1972-065A,2026-06-09T16:00:08.826912,14.60056093,.00068521,35.0045,133.2553,198.1067,333.2087,0,U,6153,999,85964,.57955785E-4,.262E-5,0
ATLAS CENTAUR R/B,1972-065B,2026-06-09T13:50:07.687104,14.77905443,.00328494,35.0004,127.1589,63.4842,296.9221,0,U,6155,999,85486,.14368033E-3,.1036E-4,0
SL-8 R/B,1975-112B,2026-06-09T14:21:18.373248,14.38242598,.00168532,74.0598,209.8351,277.6699,82.2542,0,U,8459,999,64508,.66161784E-4,.175E-5,0
SL-3 R/B,1977-057B,2026-06-09T18:46:36.199488,15.47729953,.00057232,97.5841,336.9661,317.9073,42.1736,0,U,10114,999,68256,.21845099E-3,.1122E-3,0
SEASAT 1,1978-064A,2026-06-09T16:48:19.243008,14.46237665,.00020239,108.0165,318.5729,240.9090,119.1853,0,U,10967,999,51981,.11313678E-3,.268E-5,0
SL-14 R/B,1979-011B,2026-06-09T15:56:29.414112,14.92007386,.00174426,82.5242,9.2942,108.4344,251.8774,0,U,11267,999,54249,.42947549E-4,.462E-5,0
SL-8 R/B,1979-089B,2026-06-09T17:08:46.430592,14.42400637,.00148549,74.0695,280.6904,67.4909,292.7818,0,U,11574,999,44937,.68252059E-4,.2E-5,0
SL-14 R/B,1980-005B,2026-06-09T16:05:47.107968,14.91022920,.00148363,82.5146,219.9700,211.7744,148.2581,0,U,11672,999,49019,.41552843E-4,.437E-5,0
SL-8 R/B,1981-003B,2026-06-09T13:14:46.059936,15.13993023,.0250345,82.9374,204.8647,217.9159,140.4220,0,U,12139,999,32856,.33471264E-3,.13554E-3,0
SL-3 R/B,1981-046B,2026-06-09T17:41:27.230208,15.44043223,.00191705,81.2301,179.0424,62.2801,298.0384,0,U,12465,999,45262,.22759337E-3,.1049E-3,0
SL-3 R/B,1981-103B,2026-06-09T19:45:43.328160,15.22223448,.00123576,81.1577,105.2831,342.5176,17.5629,0,U,12904,999,98724,.16911703E-3,.3918E-4,0
SL-3 R/B,1982-013B,2026-06-09T19:08:16.840896,15.22740637,.00208993,81.1746,52.7312,226.6493,133.2998,0,U,13068,999,41836,.12852913E-3,.3042E-4,0
SL-3 R/B,1982-039B,2026-06-09T19:32:44.458080,15.10493548,.0029738,81.1424,109.6060,20.3085,339.9316,0,U,13154,999,39554,.1800076E-3,.3018E-4,0
SL-3 R/B,1982-079B,2026-06-09T16:55:55.648416,15.25727637,.00231224,81.1460,84.3354,211.2553,148.7308,0,U,13403,999,39172,.15605998E-3,.4035E-4,0
SL-14 R/B,1982-092B,2026-06-09T17:09:52.186176,14.86742516,.00203186,82.5686,55.2950,0.4739,55.3599,0,U,13553,999,34260,.39641931E-4,.379E-5,0
SL-3 R/B,1983-010B,2026-06-09T19:47:40.548768,15.49044037,.0015834,81.1018,249.0302,87.0924,273.2134,0,U,13819,999,37219,.26772367E-3,.14618E-3,0
SL-3 R/B,1983-075B,2026-06-09T19:02:45.025152,15.40359808,.00188435,97.6108,168.9963,257.9616,101.9518,0,U,14208,999,34432,.22995778E-3,.925E-4,0
COSMOS 1536,1984-013A,2026-06-09T16:22:26.187456,15.24974256,.00131265,82.5454,16.3200,324.6462,35.3904,0,U,14699,999,28663,.21629819E-3,.5436E-4,0
SL-14 R/B,1984-027B,2026-06-09T17:46:54.549696,14.86054094,.00187996,82.5407,158.7001,33.1024,327.1364,0,U,14820,999,26130,.44723032E-4,.417E-5,0
