ATLAS CENTAUR 2         
1 00694U 63047A   26160.36568528  .00001282  00000+0  14299-3 0  9997
2 00694  30.3546  43.1332 0545980 168.5299 192.8318 14.12502248144593
THOR AGENA D R/B        
1 00733U 64002A   26160.76120400  .00000177  00000+0  80294-4 0  9991
2 00733  99.1156 179.0926 0032691 352.4258   7.6427 14.34062808251493
SL-3 R/B                
1 00877U 64053B   26160.46027216  .00000106  00000+0  44705-4 0  9993
2 00877  65.0775  62.1687 0081141 263.5318  95.6538 14.61423292280209
SL-8 R/B                
1 02802U 67045B   26160.75066806  .00000208  00000+0  65048-4 0  9993
2 02802  74.0092 176.1480 0063732 162.4475 197.8907 14.45679072102327
SL-8 R/B                
1 03230U 68040B   26160.33280131  .00002580  00000+0  18960-3 0  9993
2 03230  74.0296 126.3533 0026027 280.7848  79.0411 15.03777737103783
OAO 2                   
1 03597U 68110A   26160.53510883  .00000169  00000+0  50594-4 0  9990
2 03597  34.9928 112.4045 0005966 218.3929 141.6338 14.47348804 32417
ISIS 1                  
1 03669U 69009A   26160.66832698  .00000072  00000+0  53576-4 0  9999
2 03669  88.4420 145.2259 1706021 263.4230  77.0700 11.30432892358928
SERT 2                  
1 04327U 70009A   26160.74330588 -.00000014  00000+0  37893-4 0  9994
2 04327  99.2841  98.8560 0004065 296.7281 121.4083 13.58738657792399
SL-3 R/B                
1 05118U 71028B   26160.78671575  .00048920  00000+0  41991-3 0  9993
2 05118  81.2328 297.5992 0013752 307.7765  52.2246 15.69041172  3085
ASTEX 1                 
1 05560U 71089A   26160.55457862  .00000406  00000+0  10297-3 0  9999
2 05560  92.6999 181.3976 0017381 128.7637 231.5126 14.50845559875625
SL-8 R/B                
1 05730U 71119B   26160.72040813  .00003796  00000+0  19612-3 0  9990
2 05730  73.8881   3.4595 0543805 310.9335  44.5920 14.39459588668726
OAO 3 (COPERNICUS)      
1 06153U 72065A   26160.66676883  .00000262  00000+0  57956-4 0  9995
2 06153  35.0045 133.2553 0006852 198.1067 333.2087 14.60056093859641
ATLAS CENTAUR R/B       
1 06155U 72065B   26160.57647786  .00001036  00000+0  14368-3 0  9996
2 06155  35.0004 127.1589 0032849  63.4842 296.9221 14.77905443854863
SL-8 R/B                
1 08459U 75112B   26160.59812932  .00000175  00000+0  66162-4 0  9993
2 08459  74.0598 209.8351 0016853 277.6699  82.2542 14.38242598645080
SL-3 R/B                
1 10114U 77057B   26160.78236342  .00011220  00000+0  21845-3 0  9991
2 10114  97.5841 336.9661 0005723 317.9073  42.1736 15.47729953682566
SEASAT 1                
1 10967U 78064A   26160.70022272  .00000268  00000+0  11314-3 0  9993
2 10967 108.0165 318.5729 0002023 240.9090 119.1853 14.46237665519818
SL-14 R/B               
1 11267U 79011B   26160.66422933  .00000462  00000+0  42948-4 0  9997
2 11267  82.5242   9.2942 0017442 108.4344 251.8774 14.92007386542498
SL-8 R/B                
1 11574U 79089B   26160.71442628  .00000200  00000+0  68252-4 0  9998
2 11574  74.0695 280.6904 0014854  67.4909 292.7818 14.42400637449372
SL-14 R/B               
1 11672U 80005B   26160.67068412  .00000437  00000+0  41553-4 0  9994
2 11672  82.5146 219.9700 0014836 211.7744 148.2581 14.91022920490193
SL-8 R/B                
1 12139U 81003B   26160.55192199  .00013554  00000+0  33471-3 0  9992
2 12139  82.9374 204.8647 0250345 217.9159 140.4220 15.13993023328568
SL-3 R/B                
1 12465U 81046B   26160.73712072  .00010490  00000+0  22759-3 0  9992
2 12465  81.2301 179.0424 0019170  62.2801 298.0384 15.44043223452620
SL-3 R/B                
1 12904U 81103B   26160.82341815  .00003918  00000+0  16912-3 0  9998
2 12904  81.1577 105.2831 0012357 342.5176  17.5629 15.22223448987246
SL-3 R/B                
1 13068U 82013B   26160.79741714  .00003042  00000+0  12853-3 0  9997
2 13068  81.1746  52.7312 0020899 226.6493 133.2998 15.22740637418361
SL-3 R/B                
1 13154U 82039B   26160.81440345  .00003018  00000+0  18001-3 0  9994
2 13154  81.1424 109.6060 0029738  20.3085 339.9316 15.10493548395545
SL-3 R/B                
1 13403U 82079B   26160.70550519  .00004035  00000+0  15606-3 0  9996
2 13403  81.1460  84.3354 0023122 211.2553 148.7308 15.25727637391727
SL-14 R/B               
1 13553U 82092B   26160.71518734  .00000379  00000+0  39642-4 0  9995
2 13553  82.5686  55.2950 0020318   0.4739  55.3599 14.86742516342602
SL-3 R/B                
1 13819U 83010B   26160.82477487  .00014618  00000+0  26772-3 0  9992
2 13819  81.1018 249.0302 0015834  87.0924 273.2134 15.49044037372195
SL-3 R/B                
1 14208U 83075B   26160.79357668  .00009250  00000+0  22996-3 0  9990
2 14208  97.6108 168.9963 0018843 257.9616 101.9518 15.40359808344324
COSMOS 1536             
1 14699U 84013A   26160.68224754  .00005436  00000+0  21630-3 0  9990
2 14699  82.5454  16.3200 0013126 324.6462  35.3904 15.24974256286635
SL-14 R/B               
1 14820U 84027B   26160.74090914  .00000417  00000+0  44723-4 0  9990
2 14820  82.5407 158.7001 0018799  33.1024 327.1364 14.86054094261301
